GLOBALSTAR M023 [+]     
1 25621U 99004A   24014.51419520 -.00000070  00000+0  18824-3 0  9999
2 25621  52.0079 195.7783 0011050  60.6251 335.1864 12.62443043150092
GLOBALSTAR M040 [-]     
1 25622U 99004B   24014.00103134 -.00000074  00000+0  16912-3 0  9995
2 25622  51.9890 200.7354 0001061  49.9927 118.1981 12.61964641149575
GLOBALSTAR M036 [-]     
1 25623U 99004C   24014.63449872 -.00000087  00000+0 -67787-4 0  9999
2 25623  51.9940 169.6949 0012326 134.5279 308.1332 11.86558871117309
GLOBALSTAR M038 [-]     
1 25624U 99004D   24014.51141238 -.00000062  00000+0  27593-3 0  9994
2 25624  51.9967 128.1288 0002345  73.2101   7.7268 12.32491295138297
GLOBALSTAR M022 [-]     
1 25649U 99012A   24014.16449667 -.00000064  00000+0  27808-3 0  9999
2 25649  52.0035 264.5333 0001743 208.6925 318.7020 12.02476225113812
GLOBALSTAR M041 [-]     
1 25650U 99012B   24014.59127091 -.00000048  00000+0  47682-3 0  9996
2 25650  52.0013 128.9790 0002087  39.6256 320.4732 11.96652347116075
GLOBALSTAR M046 [-]     
1 25651U 99012C   24014.82497861  .00000023  00000+0  12300-2 0  9998
2 25651  52.0030 231.8263 0001461 325.5541 117.0541 12.09382403121176
GLOBALSTAR M037 [+]     
1 25652U 99012D   24014.25757337 -.00000071  00000+0  18344-3 0  9992
2 25652  52.0027 327.3793 0002125 102.8944  44.5848 12.62392931145607
